[{"CCSDS_OMM_VERS":"3.0","COMMENT":"GENERATED VIA SPACE-TRACK.ORG API","CREATION_DATE":"2025-08-07T02:11:08","ORIGINATOR":"18 SPCS","OBJECT_NAME":"FENGYUN 1C DEB","OBJECT_ID":"1999-025EZW","CENTER_NAME":"EARTH","REF_FRAME":"TEME","TIME_SYSTEM":"UTC","MEAN_ELEMENT_THEORY":"SGP4","EPOCH":"2024-04-28T10:30:47.846592","MEAN_MOTION":"14.12506480","ECCENTRICITY":"0.00548020","INCLINATION":"98.9618","RA_OF_ASC_NODE":"197.7750","ARG_OF_PERICENTER":"339.4131","MEAN_ANOMALY":"20.4832","EPHEMERIS_TYPE":"0","CLASSIFICATION_TYPE":"U","NORAD_CAT_ID":"46996","ELEMENT_SET_NO":"999","REV_AT_EPOCH":"53562","BSTAR":"0.00321770000000","MEAN_MOTION_DOT":"0.00005989","MEAN_MOTION_DDOT":"0.0000000000000","SEMIMAJOR_AXIS":"7228.944","PERIOD":"101.946","APOAPSIS":"890.425","PERIAPSIS":"811.193","OBJECT_TYPE":"DEBRIS","RCS_SIZE":"SMALL","COUNTRY_CODE":"PRC","LAUNCH_DATE":"1999-05-10","SITE":"TSC","DECAY_DATE":null,"FILE":"4806584","GP_ID":"294480594","TLE_LINE0":"0 FENGYUN 1C DEB","TLE_LINE1":"1 46996U 99025EZW 24119.43805378  .00005989  00000-0  32177-2 0  9997","TLE_LINE2":"2 46996  98.9618 197.7750 0054802 339.4131  20.4832 14.12506480535627"},{"CCSDS_OMM_VERS":"3.0","COMMENT":"GENERATED VIA SPACE-TRACK.ORG API","CREATION_DATE":"2026-03-22T02:33:08","ORIGINATOR":"18 SPCS","OBJECT_NAME":"FENGYUN 1C DEB *","OBJECT_ID":"1999-025EZX","CENTER_NAME":"EARTH","REF_FRAME":"TEME","TIME_SYSTEM":"UTC","MEAN_ELEMENT_THEORY":"SGP4","EPOCH":"2026-03-21T21:18:21.335616","MEAN_MOTION":"14.28575124","ECCENTRICITY":"0.00256668","INCLINATION":"98.5464","RA_OF_ASC_NODE":"124.2451","ARG_OF_PERICENTER":"48.6890","MEAN_ANOMALY":"130.2361","EPHEMERIS_TYPE":"0","CLASSIFICATION_TYPE":"U","NORAD_CAT_ID":"46997","ELEMENT_SET_NO":"999","REV_AT_EPOCH":"63866","BSTAR":"0.00101158560000","MEAN_MOTION_DOT":"0.00002504","MEAN_MOTION_DDOT":"0.0000000000000","SEMIMAJOR_AXIS":"7174.635","PERIOD":"100.800","APOAPSIS":"814.915","PERIAPSIS":"778.085","OBJECT_TYPE":"DEBRIS","RCS_SIZE":"SMALL","COUNTRY_CODE":"PRC","LAUNCH_DATE":"1999-05-10","SITE":"TSC","DECAY_DATE":null,"FILE":"5094829","GP_ID":"316750815","TLE_LINE0":"0 FENGYUN 1C DEB *","TLE_LINE1":"1 46997U 99025EZX 26080.88774694  .00002504  00000-0  10116-2 0  9991","TLE_LINE2":"2 46997  98.5464 124.2451 0025667  48.6890 130.2361 14.28575124638667"},{"CCSDS_OMM_VERS":"3.0","COMMENT":"GENERATED VIA SPACE-TRACK.ORG API","CREATION_DATE":"2025-04-09T17:26:22","ORIGINATOR":"18 SPCS","OBJECT_NAME":"FENGYUN 1C DEB *","OBJECT_ID":"1999-025EZY","CENTER_NAME":"EARTH","REF_FRAME":"TEME","TIME_SYSTEM":"UTC","MEAN_ELEMENT_THEORY":"SGP4","EPOCH":"2021-10-25T08:45:29.795616","MEAN_MOTION":"13.59564358","ECCENTRICITY":"0.02718750","INCLINATION":"98.2493","RA_OF_ASC_NODE":"209.3992","ARG_OF_PERICENTER":"332.7471","MEAN_ANOMALY":"25.9624","EPHEMERIS_TYPE":"0","CLASSIFICATION_TYPE":"U","NORAD_CAT_ID":"46998","ELEMENT_SET_NO":"999","REV_AT_EPOCH":"50493","BSTAR":"0.00171890000000","MEAN_MOTION_DOT":"0.00001589","MEAN_MOTION_DDOT":"0.0000000000000","SEMIMAJOR_AXIS":"7415.413","PERIOD":"105.916","APOAPSIS":"1238.884","PERIAPSIS":"835.671","OBJECT_TYPE":"DEBRIS","RCS_SIZE":"SMALL","COUNTRY_CODE":"PRC","LAUNCH_DATE":"1999-05-10","SITE":"TSC","DECAY_DATE":null,"FILE":"4696719","GP_ID":"285205930","TLE_LINE0":"0 FENGYUN 1C DEB *","TLE_LINE1":"1 46998U 99025EZY 21298.36492819  .00001589  00000-0  17189-2 0  9996","TLE_LINE2":"2 46998  98.2493 209.3992 0271875 332.7471  25.9624 13.59564358504932"},{"CCSDS_OMM_VERS":"3.0","COMMENT":"GENERATED VIA SPACE-TRACK.ORG API","CREATION_DATE":"2025-04-09T17:16:24","ORIGINATOR":"18 SPCS","OBJECT_NAME":"FENGYUN 1C DEB *","OBJECT_ID":"1999-025EZZ","CENTER_NAME":"EARTH","REF_FRAME":"TEME","TIME_SYSTEM":"UTC","MEAN_ELEMENT_THEORY":"SGP4","EPOCH":"2024-04-30T09:58:00.463296","MEAN_MOTION":"14.13760074","ECCENTRICITY":"0.00590780","INCLINATION":"99.0527","RA_OF_ASC_NODE":"194.5425","ARG_OF_PERICENTER":"325.4820","MEAN_ANOMALY":"34.2522","EPHEMERIS_TYPE":"0","CLASSIFICATION_TYPE":"U","NORAD_CAT_ID":"46999","ELEMENT_SET_NO":"999","REV_AT_EPOCH":"61259","BSTAR":"0.00193380000000","MEAN_MOTION_DOT":"0.00003674","MEAN_MOTION_DDOT":"0.0000000000000","SEMIMAJOR_AXIS":"7224.670","PERIOD":"101.856","APOAPSIS":"889.217","PERIAPSIS":"803.853","OBJECT_TYPE":"DEBRIS","RCS_SIZE":"SMALL","COUNTRY_CODE":"PRC","LAUNCH_DATE":"1999-05-10","SITE":"TSC","DECAY_DATE":null,"FILE":"4696142","GP_ID":"285199403","TLE_LINE0":"0 FENGYUN 1C DEB *","TLE_LINE1":"1 46999U 99025EZZ 24121.41528314  .00003674  00000-0  19338-2 0  9996","TLE_LINE2":"2 46999  99.0527 194.5425 0059078 325.4820  34.2522 14.13760074612598"},{"CCSDS_OMM_VERS":"3.0","COMMENT":"GENERATED VIA SPACE-TRACK.ORG API","CREATION_DATE":"2022-03-16T18:13:39","ORIGINATOR":"18 SPCS","OBJECT_NAME":"FENGYUN 1C DEB *","OBJECT_ID":"1999-025FAA","CENTER_NAME":"EARTH","REF_FRAME":"TEME","TIME_SYSTEM":"UTC","MEAN_ELEMENT_THEORY":"SGP4","EPOCH":"2022-03-14T02:16:47.966304","MEAN_MOTION":"15.09159771","ECCENTRICITY":"0.00414820","INCLINATION":"99.1329","RA_OF_ASC_NODE":"302.2586","ARG_OF_PERICENTER":"206.4994","MEAN_ANOMALY":"153.4109","EPHEMERIS_TYPE":"0","CLASSIFICATION_TYPE":"U","NORAD_CAT_ID":"47000","ELEMENT_SET_NO":"999","REV_AT_EPOCH":"55314","BSTAR":"0.01667200000000","MEAN_MOTION_DOT":"0.00280084","MEAN_MOTION_DDOT":"0.0000000000000","SEMIMAJOR_AXIS":"6916.903","PERIOD":"95.417","APOAPSIS":"567.461","PERIAPSIS":"510.075","OBJECT_TYPE":"DEBRIS","RCS_SIZE":"SMALL","COUNTRY_CODE":"PRC","LAUNCH_DATE":"1999-05-10","SITE":"TSC","DECAY_DATE":"2022-05-24","FILE":"3361689","GP_ID":"198888337","TLE_LINE0":"0 FENGYUN 1C DEB *","TLE_LINE1":"1 47000U 99025FAA 22073.09499961  .00280084  00000-0  16672-1 0  9992","TLE_LINE2":"2 47000  99.1329 302.2586 0041482 206.4994 153.4109 15.09159771553141"},{"CCSDS_OMM_VERS":"3.0","COMMENT":"GENERATED VIA SPACE-TRACK.ORG API","CREATION_DATE":"2026-03-20T03:57:10","ORIGINATOR":"18 SPCS","OBJECT_NAME":"FENGYUN 1C DEB *","OBJECT_ID":"1999-025FAB","CENTER_NAME":"EARTH","REF_FRAME":"TEME","TIME_SYSTEM":"UTC","MEAN_ELEMENT_THEORY":"SGP4","EPOCH":"2026-03-19T10:36:41.890464","MEAN_MOTION":"14.39524096","ECCENTRICITY":"0.00529875","INCLINATION":"99.2921","RA_OF_ASC_NODE":"149.5527","ARG_OF_PERICENTER":"127.3352","MEAN_ANOMALY":"233.2679","EPHEMERIS_TYPE":"0","CLASSIFICATION_TYPE":"U","NORAD_CAT_ID":"47001","ELEMENT_SET_NO":"999","REV_AT_EPOCH":"75305","BSTAR":"0.00111365080000","MEAN_MOTION_DOT":"0.00003482","MEAN_MOTION_DDOT":"0.0000000000000","SEMIMAJOR_AXIS":"7138.208","PERIOD":"100.033","APOAPSIS":"797.897","PERIAPSIS":"722.250","OBJECT_TYPE":"DEBRIS","RCS_SIZE":"SMALL","COUNTRY_CODE":"PRC","LAUNCH_DATE":"1999-05-10","SITE":"TSC","DECAY_DATE":null,"FILE":"5092242","GP_ID":"316495009","TLE_LINE0":"0 FENGYUN 1C DEB *","TLE_LINE1":"1 47001U 99025FAB 26078.44215151  .00003482  00000-0  11137-2 0  9995","TLE_LINE2":"2 47001  99.2921 149.5527 0052987 127.3352 233.2679 14.39524096753058"},{"CCSDS_OMM_VERS":"3.0","COMMENT":"GENERATED VIA SPACE-TRACK.ORG API","CREATION_DATE":"2025-04-09T17:26:22","ORIGINATOR":"18 SPCS","OBJECT_NAME":"FENGYUN 1C DEB *","OBJECT_ID":"1999-025FAC","CENTER_NAME":"EARTH","REF_FRAME":"TEME","TIME_SYSTEM":"UTC","MEAN_ELEMENT_THEORY":"SGP4","EPOCH":"2022-06-06T02:12:16.443072","MEAN_MOTION":"13.70852413","ECCENTRICITY":"0.02264260","INCLINATION":"99.1635","RA_OF_ASC_NODE":"263.8492","ARG_OF_PERICENTER":"250.0524","MEAN_ANOMALY":"107.6107","EPHEMERIS_TYPE":"0","CLASSIFICATION_TYPE":"U","NORAD_CAT_ID":"47002","ELEMENT_SET_NO":"999","REV_AT_EPOCH":"58360","BSTAR":"0.00135130000000","MEAN_MOTION_DOT":"0.00001400","MEAN_MOTION_DDOT":"0.0000000000000","SEMIMAJOR_AXIS":"7374.649","PERIOD":"105.044","APOAPSIS":"1163.496","PERIAPSIS":"829.533","OBJECT_TYPE":"DEBRIS","RCS_SIZE":"SMALL","COUNTRY_CODE":"PRC","LAUNCH_DATE":"1999-05-10","SITE":"TSC","DECAY_DATE":null,"FILE":"4696719","GP_ID":"285205431","TLE_LINE0":"0 FENGYUN 1C DEB *","TLE_LINE1":"1 47002U 99025FAC 22157.09185698  .00001400  00000-0  13513-2 0  9991","TLE_LINE2":"2 47002  99.1635 263.8492 0226426 250.0524 107.6107 13.70852413583600"},{"CCSDS_OMM_VERS":"3.0","COMMENT":"GENERATED VIA SPACE-TRACK.ORG API","CREATION_DATE":"2025-09-23T17:32:54","ORIGINATOR":"18 SPCS","OBJECT_NAME":"FENGYUN 1C DEB *","OBJECT_ID":"1999-025FAD","CENTER_NAME":"EARTH","REF_FRAME":"TEME","TIME_SYSTEM":"UTC","MEAN_ELEMENT_THEORY":"SGP4","EPOCH":"2025-09-23T02:57:56.460960","MEAN_MOTION":"13.42677725","ECCENTRICITY":"0.03321818","INCLINATION":"98.8437","RA_OF_ASC_NODE":"207.4893","ARG_OF_PERICENTER":"263.7513","MEAN_ANOMALY":"92.5692","EPHEMERIS_TYPE":"0","CLASSIFICATION_TYPE":"U","NORAD_CAT_ID":"47003","ELEMENT_SET_NO":"999","REV_AT_EPOCH":"64224","BSTAR":"0.00062905970000","MEAN_MOTION_DOT":"0.00000456","MEAN_MOTION_DDOT":"0.0000000000000","SEMIMAJOR_AXIS":"7477.458","PERIOD":"107.248","APOAPSIS":"1347.711","PERIAPSIS":"850.936","OBJECT_TYPE":"DEBRIS","RCS_SIZE":"SMALL","COUNTRY_CODE":"PRC","LAUNCH_DATE":"1999-05-10","SITE":"TSC","DECAY_DATE":null,"FILE":"4824200","GP_ID":"298248051","TLE_LINE0":"0 FENGYUN 1C DEB *","TLE_LINE1":"1 47003U 99025FAD 25266.12357015  .00000456  00000-0  62906-3 0  9995","TLE_LINE2":"2 47003  98.8437 207.4893 0332182 263.7513  92.5692 13.42677725642249"}]